{"fetched_at":"2026-03-29T16:36:15Z","count":15609,"tles":[{"name":"STARLINK-35765","line1":"1 67041U 25294M   26087.94643651  .00036355  00000+0  13227-2 0  9999","line2":"2 67041  42.9999 289.3815 0003061 250.1346 109.9176 15.27613214 17743","category":"Starlink"}]}